SAR-LUPE 2              
1 31797U 07030A   26189.56328374  .00031851  00000+0  51104-3 0  9992
2 31797  98.1052 296.7011 0003784 209.3369 150.7670 15.53004587 60251
SAPPHIRE                
1 39088U 13009C   26189.56431328  .00000074  00000+0  40751-4 0  9990
2 39088  98.4271   8.5134 0011162 179.2277 180.8928 14.35246340699640
PRAETORIAN SDA_602      
1 65565U 25203A   26189.42219278  .00000070  00000+0  52266-4 0  9991
2 65565  81.3036 351.1052 0006878 133.2210 226.9521 13.83887633 41639
PRAETORIAN SDA_603      
1 65566U 25203B   26189.45083920  .00000139  00000+0  11423-3 0  9993
2 65566  81.3042 351.0007 0010540 131.2556 228.9510 13.83962107 41649
PRAETORIAN SDA_604      
1 65567U 25203C   26189.19458834  .00000067  00000+0  50695-4 0  9990
2 65567  81.3058 351.6826 0006350 137.4403 222.7246 13.83049755 41581
PRAETORIAN SDA_605      
1 65568U 25203D   26189.44437747  .00000055  00000+0  39497-4 0  9993
2 65568  81.3023 351.0965 0009150 129.6071 230.5895 13.83199748 41638
PRAETORIAN SDA_606      
1 65569U 25203E   26189.42955203  .00000063  00000+0  46852-4 0  9996
2 65569  81.3060 351.3457 0006983 131.5782 228.5974 13.83199774 41624
PRAETORIAN SDA_607      
1 65570U 25203F   26189.42263815  .00000120  00000+0  97471-4 0  9996
2 65570  81.3045 350.9793 0009774 131.0280 229.1723 13.83758487 41649
PRAETORIAN SDA_608      
1 65571U 25203G   26189.40546109  .00000064  00000+0  47451-4 0  9995
2 65571  81.3013 351.1618 0006858 136.0010 224.1693 13.83819017 41626
PRAETORIAN SDA_609      
1 65572U 25203H   26188.97066467  .00000202  00000+0  17051-3 0  9997
2 65572  81.3052 351.5437 0007706 132.0854 228.0959 13.84211385 41575
PRAETORIAN SDA_610      
1 65573U 25203J   26189.45825699  .00000044  00000+0  28927-4 0  9991
2 65573  81.3014 351.0727 0007629 135.1385 225.0389 13.83769316 41630
PRAETORIAN SDA_611      
1 65574U 25203K   26189.39377353  .00000053  00000+0  37339-4 0  9991
2 65574  81.3014 351.3145 0006385 139.6383 220.5248 13.83311312 41614
PRAETORIAN SDA_612      
1 65575U 25203L   26189.42916484  .00000170  00000+0  14009-3 0  9998
2 65575  81.3034 350.8143 0010188 131.5508 228.6524 13.85040372 41652
PRAETORIAN SDA_613      
1 65576U 25203M   26189.40885343  .00000065  00000+0  48872-4 0  9995
2 65576  81.3005 351.3125 0006594 130.4505 229.7227 13.82767267 41612
PRAETORIAN SDA_614      
1 65577U 25203N   26189.42235353  .00000013  00000+0  46482-6 0  9998
2 65577  81.3011 350.9038 0008016 129.4690 230.7178 13.84778135 41651
PRAETORIAN SDA_615      
1 65578U 25203P   26189.40446812  .00000157  00000+0  12955-3 0  9995
2 65578  81.3028 350.8975 0009922 130.0403 230.1626 13.84438082 41641
PRAETORIAN SDA_616      
1 65579U 25203Q   26188.95962896  .00000135  00000+0  11201-3 0  9999
2 65579  81.3069 351.8735 0006301 138.6240 221.5394 13.83269699 41554
PRAETORIAN SDA_617      
1 65580U 25203R   26189.20002037  .00000059  00000+0  42518-4 0  9993
2 65580  81.3043 351.4806 0008304 130.1234 230.0651 13.83151609 41594
PRAETORIAN SDA_618      
1 65581U 25203S   26188.93707821  .00000113  00000+0  90784-4 0  9995
2 65581  81.3027 351.2606 0010673 134.8285 225.3741 13.84225226 41586
PRAETORIAN SDA_619      
1 65582U 25203T   26189.19920090  .00000134  00000+0  11050-3 0  9991
2 65582  81.3052 351.3398 0009110 131.1851 229.0093 13.83805788 42237
PRAETORIAN SDA_620      
1 65583U 25203U   26189.59295075  .00000136  00000+0  11328-3 0  9994
2 65583  81.3036 351.0023 0008540 127.5314 232.6620 13.83304663 41658
PRAETORIAN SDA_621      
1 65584U 25203V   26189.41794003  .00000076  00000+0  58044-4 0  9991
2 65584  81.3027 351.0711 0008353 125.0713 235.1229 13.83803661 41634
PRAETORIAN SDA_601      
1 65585U 25203W   26189.39828901  .00000083  00000+0  65208-4 0  9992
2 65585  81.3044 351.4113 0006356 140.8120 219.3498 13.83170040 41610
VICTUS HAZE PUMA        
1 69646U 26142A   26189.59991987  .00002714  00000+0  12528-3 0  9993
2 69646  97.4474  86.9797 0025170 290.5091  69.3443 15.20816702  2929
