OBJECT_NAME,OBJECT_ID,EPOCH,MEAN_MOTION,ECCENTRICITY,INCLINATION,RA_OF_ASC_NODE,ARG_OF_PERICENTER,MEAN_ANOMALY,EPHEMERIS_TYPE,CLASSIFICATION_TYPE,NORAD_CAT_ID,ELEMENT_SET_NO,REV_AT_EPOCH,BSTAR,MEAN_MOTION_DOT,MEAN_MOTION_DDOT
SAR-LUPE 2,2007-030A,2026-07-08T13:31:07.715136,15.53004587,.00037844,98.1052,296.7011,209.3369,150.7670,0,U,31797,999,6025,.51104186E-3,.31851E-3,0
SAPPHIRE,2013-009C,2026-07-08T13:32:36.667392,14.35246340,.00111627,98.4271,8.5134,179.2277,180.8928,0,U,39088,999,69964,.40751291E-4,.74E-6,0
PRAETORIAN SDA_602,2025-203A,2026-07-08T10:07:57.456192,13.83887633,.0006878,81.3036,351.1052,133.2210,226.9521,0,U,65565,999,4163,.52266019E-4,.7E-6,0
PRAETORIAN SDA_603,2025-203B,2026-07-08T10:49:12.506880,13.83962107,.00105405,81.3042,351.0007,131.2556,228.9510,0,U,65566,999,4164,.11423038E-3,.139E-5,0
PRAETORIAN SDA_604,2025-203C,2026-07-08T04:40:12.432576,13.83049755,.00063507,81.3058,351.6826,137.4403,222.7246,0,U,65567,999,4158,.50694833E-4,.67E-6,0
PRAETORIAN SDA_605,2025-203D,2026-07-08T10:39:54.213408,13.83199748,.00091507,81.3023,351.0965,129.6071,230.5895,0,U,65568,999,4163,.3949669E-4,.55E-6,0
PRAETORIAN SDA_606,2025-203E,2026-07-08T10:18:33.295392,13.83199774,.00069832,81.3060,351.3457,131.5782,228.5974,0,U,65569,999,4162,.46851909E-4,.63E-6,0
PRAETORIAN SDA_607,2025-203F,2026-07-08T10:08:35.936160,13.83758487,.00097747,81.3045,350.9793,131.0280,229.1723,0,U,65570,999,4164,.97471164E-4,.12E-5,0
PRAETORIAN SDA_608,2025-203G,2026-07-08T09:43:51.838176,13.83819017,.00068583,81.3013,351.1618,136.0010,224.1693,0,U,65571,999,4162,.47450744E-4,.64E-6,0
PRAETORIAN SDA_609,2025-203H,2026-07-07T23:17:45.427488,13.84211385,.00077067,81.3052,351.5437,132.0854,228.0959,0,U,65572,999,4157,.17051096E-3,.202E-5,0
PRAETORIAN SDA_610,2025-203J,2026-07-08T10:59:53.403936,13.83769316,.00076297,81.3014,351.0727,135.1385,225.0389,0,U,65573,999,4163,.28926625E-4,.44E-6,0
PRAETORIAN SDA_611,2025-203K,2026-07-08T09:27:02.032992,13.83311312,.00063851,81.3014,351.3145,139.6383,220.5248,0,U,65574,999,4161,.37339414E-4,.53E-6,0
PRAETORIAN SDA_612,2025-203L,2026-07-08T10:17:59.842176,13.85040372,.00101883,81.3034,350.8143,131.5508,228.6524,0,U,65575,999,4165,.14009233E-3,.17E-5,0
PRAETORIAN SDA_613,2025-203M,2026-07-08T09:48:44.936352,13.82767267,.00065948,81.3005,351.3125,130.4505,229.7227,0,U,65576,999,4161,.48871532E-4,.65E-6,0
PRAETORIAN SDA_614,2025-203N,2026-07-08T10:08:11.344992,13.84778135,.00080167,81.3011,350.9038,129.4690,230.7178,0,U,65577,999,4165,.464819E-6,.13E-6,0
PRAETORIAN SDA_615,2025-203P,2026-07-08T09:42:26.045568,13.84438082,.00099227,81.3028,350.8975,130.0403,230.1626,0,U,65578,999,4164,.12954992E-3,.157E-5,0
PRAETORIAN SDA_616,2025-203Q,2026-07-07T23:01:51.942144,13.83269699,.00063014,81.3069,351.8735,138.6240,221.5394,0,U,65579,999,4155,.11200818E-3,.135E-5,0
PRAETORIAN SDA_617,2025-203R,2026-07-08T04:48:01.759968,13.83151609,.00083043,81.3043,351.4806,130.1234,230.0651,0,U,65580,999,4159,.42518161E-4,.59E-6,0
PRAETORIAN SDA_618,2025-203S,2026-07-07T22:29:23.557344,13.84225226,.00106736,81.3027,351.2606,134.8285,225.3741,0,U,65581,999,4158,.90784223E-4,.113E-5,0
PRAETORIAN SDA_619,2025-203T,2026-07-08T04:46:50.957760,13.83805788,.00091106,81.3052,351.3398,131.1851,229.0093,0,U,65582,999,4223,.11049895E-3,.134E-5,0
PRAETORIAN SDA_620,2025-203U,2026-07-08T14:13:50.944800,13.83304663,.00085408,81.3036,351.0023,127.5314,232.6620,0,U,65583,999,4165,.11328342E-3,.136E-5,0
PRAETORIAN SDA_621,2025-203V,2026-07-08T10:01:50.018592,13.83803661,.00083537,81.3027,351.0711,125.0713,235.1229,0,U,65584,999,4163,.58044252E-4,.76E-6,0
PRAETORIAN SDA_601,2025-203W,2026-07-08T09:33:32.170464,13.83170040,.00063561,81.3044,351.4113,140.8120,219.3498,0,U,65585,999,4161,.65208348E-4,.83E-6,0
VICTUS HAZE PUMA,2026-142A,2026-07-08T14:23:53.076768,15.20816702,.00251701,97.4474,86.9797,290.5091,69.3443,0,U,69646,999,292,.12528489E-3,.2714E-4,0
